{
  "links" : {
    "next" : "https://api.nasa.gov/neo/rest/v1/feed?start_date=2009-11-09&end_date=2009-11-09&detailed=true&api_key=t0TVs3DtDT2H8Oy2Zy8m2eVrNsAVKAexjcZXUckd",
    "prev" : "https://api.nasa.gov/neo/rest/v1/feed?start_date=2009-11-07&end_date=2009-11-07&detailed=true&api_key=t0TVs3DtDT2H8Oy2Zy8m2eVrNsAVKAexjcZXUckd",
    "self" : "https://api.nasa.gov/neo/rest/v1/feed?start_date=2009-11-08&end_date=2009-11-08&detailed=true&api_key=t0TVs3DtDT2H8Oy2Zy8m2eVrNsAVKAexjcZXUckd"
  },
  "element_count" : 7,
  "near_earth_objects" : {
    "2009-11-08" : [ {
      "links" : {
        "self" : "https://api.nasa.gov/neo/rest/v1/neo/3437789?api_key=t0TVs3DtDT2H8Oy2Zy8m2eVrNsAVKAexjcZXUckd"
      },
      "neo_reference_id" : "3437789",
      "name" : "(2008 VY3)",
      "nasa_jpl_url" : "http://ssd.jpl.nasa.gov/sbdb.cgi?sstr=3437789",
      "absolute_magnitude_h" : 24.8,
      "estimated_diameter" : {
        "kilometers" : {
          "estimated_diameter_min" : 0.0291443905,
          "estimated_diameter_max" : 0.0651688382
        },
        "meters" : {
          "estimated_diameter_min" : 29.1443904535,
          "estimated_diameter_max" : 65.1688382168
        },
        "miles" : {
          "estimated_diameter_min" : 0.018109479,
          "estimated_diameter_max" : 0.0404940262
        },
        "feet" : {
          "estimated_diameter_min" : 95.6180819754,
          "estimated_diameter_max" : 213.8085311752
        }
      },
      "is_potentially_hazardous_asteroid" : false,
      "close_approach_data" : [ {
        "close_approach_date" : "2009-11-08",
        "epoch_date_close_approach" : 1257667200000,
        "relative_velocity" : {
          "kilometers_per_second" : "14.5992468928",
          "kilometers_per_hour" : "52557.2888140735",
          "miles_per_hour" : "32657.0553745003"
        },
        "miss_distance" : {
          "astronomical" : "0.1084488323",
          "lunar" : "42.1865959167",
          "kilometers" : "16223715",
          "miles" : "10080949"
        },
        "orbiting_body" : "Earth"
      } ],
      "orbital_data" : {
        "orbit_id" : "8",
        "orbit_determination_date" : "2017-04-06 09:02:16",
        "orbit_uncertainty" : "8",
        "minimum_orbit_intersection" : ".0354197",
        "jupiter_tisserand_invariant" : "6.056",
        "epoch_osculation" : "2454775.5",
        "eccentricity" : ".3479200511247572",
        "semi_major_axis" : ".9896649279274938",
        "inclination" : "12.38283450399265",
        "ascending_node_longitude" : "220.3080554103107",
        "orbital_period" : "359.6091194891068",
        "perihelion_distance" : ".645340655606581",
        "perihelion_argument" : "301.4048607754086",
        "aphelion_distance" : "1.333989200248407",
        "perihelion_time" : "2454853.676857127850",
        "mean_anomaly" : "281.738167802837",
        "mean_motion" : "1.001086959394824",
        "equinox" : "J2000"
      }
    }, {
      "links" : {
        "self" : "https://api.nasa.gov/neo/rest/v1/neo/3477943?api_key=t0TVs3DtDT2H8Oy2Zy8m2eVrNsAVKAexjcZXUckd"
      },
      "neo_reference_id" : "3477943",
      "name" : "(2009 WZ7)",
      "nasa_jpl_url" : "http://ssd.jpl.nasa.gov/sbdb.cgi?sstr=3477943",
      "absolute_magnitude_h" : 19.8,
      "estimated_diameter" : {
        "kilometers" : {
          "estimated_diameter_min" : 0.2914439045,
          "estimated_diameter_max" : 0.6516883822
        },
        "meters" : {
          "estimated_diameter_min" : 291.4439045349,
          "estimated_diameter_max" : 651.6883821679
        },
        "miles" : {
          "estimated_diameter_min" : 0.1810947904,
          "estimated_diameter_max" : 0.4049402617
        },
        "feet" : {
          "estimated_diameter_min" : 956.1808197541,
          "estimated_diameter_max" : 2138.0853117517
        }
      },
      "is_potentially_hazardous_asteroid" : false,
      "close_approach_data" : [ {
        "close_approach_date" : "2009-11-08",
        "epoch_date_close_approach" : 1257667200000,
        "relative_velocity" : {
          "kilometers_per_second" : "15.3403909497",
          "kilometers_per_hour" : "55225.4074188998",
          "miles_per_hour" : "34314.9205153714"
        },
        "miss_distance" : {
          "astronomical" : "0.3184971814",
          "lunar" : "123.895401001",
          "kilometers" : "47646500",
          "miles" : "29606162"
        },
        "orbiting_body" : "Earth"
      } ],
      "orbital_data" : {
        "orbit_id" : "15",
        "orbit_determination_date" : "2017-04-06 08:59:05",
        "orbit_uncertainty" : "6",
        "minimum_orbit_intersection" : ".101322",
        "jupiter_tisserand_invariant" : "3.513",
        "epoch_osculation" : "2458000.5",
        "eccentricity" : ".6889677740888389",
        "semi_major_axis" : "1.937566435140242",
        "inclination" : "20.67504118224058",
        "ascending_node_longitude" : "76.50675083286021",
        "orbital_period" : "985.106831024499",
        "perihelion_distance" : ".6026456011724229",
        "perihelion_argument" : "250.5136261839586",
        "aphelion_distance" : "3.272487269108062",
        "perihelion_time" : "2458044.743550262673",
        "mean_anomaly" : "343.8315220309682",
        "mean_motion" : ".3654425983683459",
        "equinox" : "J2000"
      }
    }, {
      "links" : {
        "self" : "https://api.nasa.gov/neo/rest/v1/neo/3604618?api_key=t0TVs3DtDT2H8Oy2Zy8m2eVrNsAVKAexjcZXUckd"
      },
      "neo_reference_id" : "3604618",
      "name" : "(2012 KU12)",
      "nasa_jpl_url" : "http://ssd.jpl.nasa.gov/sbdb.cgi?sstr=3604618",
      "absolute_magnitude_h" : 21.6,
      "estimated_diameter" : {
        "kilometers" : {
          "estimated_diameter_min" : 0.1272198785,
          "estimated_diameter_max" : 0.2844722965
        },
        "meters" : {
          "estimated_diameter_min" : 127.2198785394,
          "estimated_diameter_max" : 284.4722965033
        },
        "miles" : {
          "estimated_diameter_min" : 0.0790507431,
          "estimated_diameter_max" : 0.1767628354
        },
        "feet" : {
          "estimated_diameter_min" : 417.3880663071,
          "estimated_diameter_max" : 933.3080892598
        }
      },
      "is_potentially_hazardous_asteroid" : true,
      "close_approach_data" : [ {
        "close_approach_date" : "2009-11-08",
        "epoch_date_close_approach" : 1257667200000,
        "relative_velocity" : {
          "kilometers_per_second" : "22.3221185033",
          "kilometers_per_hour" : "80359.6266117706",
          "miles_per_hour" : "49932.3468799638"
        },
        "miss_distance" : {
          "astronomical" : "0.349050165",
          "lunar" : "135.7805175781",
          "kilometers" : "52217160",
          "miles" : "32446240"
        },
        "orbiting_body" : "Earth"
      } ],
      "orbital_data" : {
        "orbit_id" : "9",
        "orbit_determination_date" : "2017-04-06 08:49:44",
        "orbit_uncertainty" : "7",
        "minimum_orbit_intersection" : ".0402208",
        "jupiter_tisserand_invariant" : "4.145",
        "epoch_osculation" : "2458000.5",
        "eccentricity" : ".4884861071078959",
        "semi_major_axis" : "1.637953018268295",
        "inclination" : "8.625024797281236",
        "ascending_node_longitude" : "53.19746633752808",
        "orbital_period" : "765.6857909504253",
        "perihelion_distance" : ".8378357247487874",
        "perihelion_argument" : "74.19293230264267",
        "aphelion_distance" : "2.438070311787803",
        "perihelion_time" : "2458250.787723621968",
        "mean_anomaly" : "242.3230343714942",
        "mean_motion" : ".4701667501928457",
        "equinox" : "J2000"
      }
    } ]
  }
}